SL-16 R/B               
1 26070U 00006B   22033.34126424 -.00000252  00000+0 -10430-3 0  9998
2 26070  71.0039   3.1500 0018929 295.4574  64.4590 14.15478015136791
MTI                     
1 26102U 00014A   22033.53304453  .00056629  00000+0  43542-3 0  9991
2 26102  97.4593 318.5693 0005457 134.6010 225.6011 15.71851410217337
TITAN 4B R/B            
1 26474U 00047B   22033.57552191  .00000782  00000+0  77230-4 0  9998
2 26474  67.9919 237.1285 0060821 263.5710  95.8504 14.96407581168264
ENVISAT                 
1 27386U 02009A   22033.55491903  .00000108  00000+0  49261-4 0  9997
2 27386  98.1700  21.0925 0001171  87.8819  21.2066 14.38073483 44076
IDEFIX & ARIANE 42P R/B 
1 27422U 02021B   22033.55683005  .00000095  00000+0  53834-4 0  9994
2 27422  98.4341 343.7283 0011076 275.7423  84.2496 14.29358149 30184
AQUA                    
1 27424U 02022A   22033.58816154  .00000377  00000+0  93635-4 0  9999
2 27424  98.2347 336.8831 0000820  55.2192 118.0798 14.57127728 50542
CZ-4B R/B               
1 27432U 02024C   22033.61091275 -.00000001  00000+0  23550-4 0  9997
2 27432  99.0744  56.7241 0049540 297.8923 169.3215 14.14123852 17769
MIDORI II (ADEOS-II)    
1 27597U 02056A   22033.55465447  .00000124  00000+0  68203-4 0  9992
2 27597  98.5928 339.5689 0002013  67.7130 292.4264 14.27552251996711
H-2A R/B                
1 27601U 02056E   22033.57407097  .00000045  00000+0  31354-4 0  9996
2 27601  98.1801  47.8756 0071072 304.2209 163.7587 14.32031267999866
CZ-4B R/B               
1 28059U 03049C   22033.51685894  .00000153  00000+0  48463-4 0  9993
2 28059  98.5106 328.2955 0051013 118.9776 241.6546 14.52707445969223
CZ-2C R/B               
1 28222U 04012C   22033.54468111  .00002000  00000+0  11919-3 0  9998
2 28222  97.7577  12.1307 0046721 152.5278 325.1818 15.11500926975845
SL-16 R/B               
1 28353U 04021B   22033.61470761 -.00000269  00000+0 -11573-3 0  9998
2 28353  71.0009 131.0902 0004522 180.7614 179.3502 14.14251406911282
CZ-4B R/B               
1 28415U 04035C   22033.59882447  .00001832  00000+0  12131-3 0  9993
2 28415  97.5364  76.8908 0052207 120.2691 240.3719 15.07457038953273
CZ-2C R/B               
1 28480U 04046B   22033.61383432  .00000123  00000+0  62071-4 0  9991
2 28480  98.0558  32.0764 0140568 261.7235 205.5162 14.25786155895222
ARIANE 5 R/B            
1 28499U 04049H   22033.35308828  .00000537  00000+0  72961-4 0  9999
2 28499  98.0835 149.0369 0092493 150.2702 276.7998 14.80237681924095
CZ-2D R/B               
1 28738U 05024B   22033.58790738  .00002412  00000+0  14038-3 0  9993
2 28738  97.3548  46.4274 0010006 288.3733  71.6410 15.12920021911355
SUZAKU (ASTRO-EII)      
1 28773U 05025A   22033.51592652  .00004218  00000+0  18963-3 0  9998
2 28773  31.3816 103.0131 0004416  84.6594 275.4558 15.19466971914471
ALOS (DAICHI)           
1 28931U 06002A   22033.51243868  .00000408  00000+0  88461-4 0  9990
2 28931  97.9173   3.5718 0002088  45.9477 314.1898 14.62979975854694
H-2A R/B                
1 28932U 06002B   22033.58993722  .00001598  00000+0  14920-3 0  9998
2 28932  98.3098  68.6411 0087825 173.2942 303.2868 14.92932786869911
AKARI (ASTRO-F)         
1 28939U 06005A   22033.11051121  .00012082  00000+0  26866-3 0  9997
2 28939  98.2160  89.4157 0080961  37.1737 323.5074 15.40361700872216
RESURS-DK 1             
1 29228U 06021A   22033.58769637  .00000797  00000+0  66589-4 0  9993
2 29228  69.9356 112.6288 0007859 269.6270  90.3990 15.02898153862112
GENESIS 1               
1 29252U 06029A   22033.59092713  .00003549  00000+0  16904-3 0  9996
2 29252  64.5233 153.5478 0059120 282.8543  76.5980 15.19440160858475
CZ-4B R/B               
1 29507U 06046C   22033.59084843  .00000494  00000+0  42520-4 0  9993
2 29507  97.7468  64.1990 0045176 320.1468  39.6442 15.01309581834637
CZ-2C R/B               
1 31114U 07010B   22033.49219385  .00000114  00000+0  71872-4 0  9993
2 31114  98.2297 216.0260 0059140 332.6575  27.1493 14.19390923767418
COSMO-SKYMED 1          
1 31598U 07023A   22033.58327273 -.00001883  00000+0 -23017-3 0  9992
2 31598  97.8817 219.1922 0001562  91.1647 268.9759 14.82146062792981
GENESIS 2               
1 31789U 07028A   22033.56855905  .00002587  00000+0  13355-3 0  9999
2 31789  64.4959 196.4629 0031523 340.6634  19.3290 15.18424365805415
COSMOS 2428             
1 31792U 07029A   22033.58351625  .00000331  00000+0  20503-3 0  9994
2 31792  70.9303 102.7244 0010808 257.4660 102.5252 14.12454120752806
SL-16 R/B               
1 31793U 07029B   22033.53599209  .00000238  00000+0  14894-3 0  9994
2 31793  70.9748  76.2917 0001784 263.3398 203.4750 14.14457785753783
KORONAS-FOTON           
1 33504U 09003A   22033.35651926  .00003096  00000+0  15694-3 0  9999
2 33504  82.4439 350.5877 0019512  24.8688 335.3480 15.16443782717480
H-2A R/B                
1 38341U 12025E   22033.53858371  .00000751  00000+0  94359-4 0  9995
2 38341  98.5179 239.7382 0056107 119.8355 240.8451 14.84418114525636
CUSAT 2 & FALCON 9 R/B  
1 39271U 13055G   22033.35872336  .00014637  00000+0  33077-3 0  9996
2 39271  80.9658 343.1533 0551371 170.3571 190.8764 14.57206464437062
CZ-2C R/B               
1 39364U 13059B   22033.25618890  .00006160  00000+0  21261-3 0  9999
2 39364  97.1821  91.2287 0046791  94.8204 265.8381 15.29247493459533
SL-4 R/B                
1 39679U 14021B   22033.52859412  .00003337  00000+0  17359-3 0  9991
2 39679  51.6134 223.8059 0167954 209.3157 149.8310 15.07605273428752
ALOS-2                  
1 39766U 14029A   22033.54498705 -.00000224  00000+0 -23175-4 0  9990
2 39766  97.9196 132.6150 0001530  96.7727 263.3665 14.79470597415687
CZ-2C R/B               
1 40306U 14071B   22033.43119388  .00020738  00000+0  33193-3 0  9994
2 40306  97.4051   1.7479 0013774 144.0004 216.2179 15.53048224405881
SL-27 R/B               
1 40354U 14084B   22033.61798571  .00004384  00000+0  10122-3 0  9994
2 40354  74.7357 235.3694 0034916 124.8997 235.5506 15.42160412399807
YAOGAN 29               
1 41038U 15069A   22033.46458993  .00000178  00000+0  30146-4 0  9998
2 41038  98.0515  33.0890 0002114  99.5040 260.6410 14.80570165334314
ASTRO-H (HITOMI)        
1 41337U 16012A   22033.57593704  .00001063  00000+0  78618-4 0  9991
2 41337  31.0038 195.6122 0012211 193.9670 166.0628 14.99047516326863
HXMT (HUIYAN)           
1 42758U 17034A   22033.41737122  .00001713  00000+0  11804-3 0  9996
2 42758  43.0180  10.5068 0007123 161.4835 334.3259 15.09643247255760
CZ-2C R/B               
1 43521U 18054D   22033.56312679  .00002632  00000+0  13971-3 0  9998
2 43521  35.1539 109.9033 0080881 329.9411  29.6677 15.12210996199240
AEOLUS                  
1 43600U 18066A   22033.54312515  .00058190  30317-5  22510-3 0  9995
2 43600  96.7103  41.7105 0010560  68.6647 291.5753 15.87287172199737
SAOCOM 1A               
1 43641U 18076A   22033.52412316  .00000182  00000+0  29409-4 0  9992
2 43641  97.8847 222.1459 0001485  83.1867 276.9525 14.82162862179743
SAOCOM 1B               
1 46265U 20059A   22033.48782921  .00001487  00000+0  19331-3 0  9999
2 46265  97.8844 221.1793 0001665  84.5564 275.5853 14.82164643 77132
SL-4 R/B                
1 47547U 21008B   22033.38365927  .00336125  54792-5  49372-3 0  9991
2 47547  67.1138  46.0021 0152590 100.1760 261.6670 15.86390978 55874
TIANHE                  
1 48274U 21035A   22033.54372406  .00009160  00000+0  10855-3 0  9994
2 48274  41.4726 319.3571 0005147 228.3726 303.9585 15.61291172 43710
